start=new Date('2022-09-30T00:00:00.000Z').valueOf();
sats=[{"DECAY_DATE":null,"RCS_SIZE":"LARGE","GP_ID":"213838863","TLE_LINE1":"1 53400U 22097N   22272.91667824 -.00019274  00000-0 -11957-2 0  9990","TLE_LINE2":"2 53400  53.2178   5.9776 0001534  43.1783  72.8720 15.08852764  1309","MEAN_ANOMALY":"72.8720","OBJECT_ID":"2022-097N","OBJECT_NAME":"STARLINK-4520","MEAN_MOTION_DDOT":"0.0000000000000","ELEMENT_SET_NO":"999","MEAN_MOTION":"15.08852764","SITE":"AFETR","PERIOD":"95.437","BSTAR":"-0.00119570000000","ARG_OF_PERICENTER":"43.1783","ECCENTRICITY":"0.00015340","FILE":"3587117","COUNTRY_CODE":"US","NORAD_CAT_ID":"53400","SEMIMAJOR_AXIS":"6917.841","INCLINATION":"53.2178","MEAN_ELEMENT_THEORY":"SGP4","TIME_SYSTEM":"UTC","EPHEMERIS_TYPE":"0","MEAN_MOTION_DOT":"-0.00019274","REV_AT_EPOCH":"130","CENTER_NAME":"EARTH","APOAPSIS":"540.768","PERIAPSIS":"538.645","REF_FRAME":"TEME","RA_OF_ASC_NODE":"5.9776","CLASSIFICATION_TYPE":"U","EPOCH":"2022-09-29T22:00:00.999936","LAUNCH_DATE":"2022-08-10","OBJECT_TYPE":"PAYLOAD"},{"BSTAR":"-0.00078733000000","ELEMENT_SET_NO":"999","MEAN_MOTION_DDOT":"0.0000000000000","OBJECT_NAME":"STARLINK-4525","PERIOD":"95.438","SITE":"AFETR","MEAN_MOTION":"15.08840420","OBJECT_ID":"2022-097P","MEAN_ANOMALY":"346.2135","TLE_LINE2":"2 53401  53.2191   5.9824 0001463  49.8123 346.2135 15.08840420  1305","TLE_LINE1":"1 53401U 22097P   22272.91667824 -.00012797  00000-0 -78733-3 0  9990","GP_ID":"213839187","RCS_SIZE":"LARGE","DECAY_DATE":null,"LAUNCH_DATE":"2022-08-10","OBJECT_TYPE":"PAYLOAD","RA_OF_ASC_NODE":"5.9824","EPOCH":"2022-09-29T22:00:00.999936","CLASSIFICATION_TYPE":"U","APOAPSIS":"540.756","CENTER_NAME":"EARTH","REF_FRAME":"TEME","PERIAPSIS":"538.732","TIME_SYSTEM":"UTC","MEAN_MOTION_DOT":"-0.00012797","REV_AT_EPOCH":"130","EPHEMERIS_TYPE":"0","SEMIMAJOR_AXIS":"6917.879","INCLINATION":"53.2191","MEAN_ELEMENT_THEORY":"SGP4","COUNTRY_CODE":"US","NORAD_CAT_ID":"53401","FILE":"3587117","ARG_OF_PERICENTER":"49.8123","ECCENTRICITY":"0.00014630"},{"PERIAPSIS":"538.756","REF_FRAME":"TEME","CENTER_NAME":"EARTH","APOAPSIS":"541.164","EPHEMERIS_TYPE":"0","REV_AT_EPOCH":"130","MEAN_MOTION_DOT":"0.00170583","TIME_SYSTEM":"UTC","OBJECT_TYPE":"PAYLOAD","LAUNCH_DATE":"2022-08-10","EPOCH":"2022-09-29T22:00:00.999936","CLASSIFICATION_TYPE":"U","RA_OF_ASC_NODE":"5.9823","FILE":"3587117","ECCENTRICITY":"0.00017400","ARG_OF_PERICENTER":"48.7748","MEAN_ELEMENT_THEORY":"SGP4","SEMIMAJOR_AXIS":"6918.095","INCLINATION":"53.2179","NORAD_CAT_ID":"53402","COUNTRY_CODE":"US","OBJECT_ID":"2022-097Q","BSTAR":"0.01050100000000","MEAN_MOTION":"15.08769810","PERIOD":"95.442","SITE":"AFETR","OBJECT_NAME":"STARLINK-4499","MEAN_MOTION_DDOT":"0.0000000000000","ELEMENT_SET_NO":"999","RCS_SIZE":"LARGE","DECAY_DATE":null,"MEAN_ANOMALY":"87.2745","GP_ID":"213839025","TLE_LINE1":"1 53402U 22097Q   22272.91667824  .00170583  00000-0  10501-1 0  9994","TLE_LINE2":"2 53402  53.2179   5.9823 0001740  48.7748  87.2745 15.08769810  1302"},{"BSTAR":"-0.00133610000000","ELEMENT_SET_NO":"999","OBJECT_NAME":"STARLINK-4507","MEAN_MOTION_DDOT":"0.0000000000000","PERIOD":"95.437","SITE":"AFETR","MEAN_MOTION":"15.08848864","OBJECT_ID":"2022-097R","MEAN_ANOMALY":"14.1843","TLE_LINE2":"2 53403  53.2178   5.9798 0001522  56.6468  14.1843 15.08848864  1303","TLE_LINE1":"1 53403U 22097R   22272.91667824 -.00021494  00000-0 -13361-2 0  9991","GP_ID":"213839342","RCS_SIZE":"LARGE","DECAY_DATE":null,"LAUNCH_DATE":"2022-08-10","OBJECT_TYPE":"PAYLOAD","CLASSIFICATION_TYPE":"U","EPOCH":"2022-09-29T22:00:00.999936","RA_OF_ASC_NODE":"5.9798","APOAPSIS":"540.771","CENTER_NAME":"EARTH","REF_FRAME":"TEME","PERIAPSIS":"538.665","TIME_SYSTEM":"UTC","REV_AT_EPOCH":"130","MEAN_MOTION_DOT":"-0.00021494","EPHEMERIS_TYPE":"0","SEMIMAJOR_AXIS":"6917.853","INCLINATION":"53.2178","MEAN_ELEMENT_THEORY":"SGP4","COUNTRY_CODE":"US","NORAD_CAT_ID":"53403","FILE":"3587117","ARG_OF_PERICENTER":"56.6468","ECCENTRICITY":"0.00015220"},{"MEAN_ANOMALY":"2.9231","TLE_LINE2":"2 53404  53.2168 358.6166 0001626  25.3922   2.9231 15.48489274  1309","GP_ID":"213838448","TLE_LINE1":"1 53404U 22097S   22272.91667824 -.01070473  00000-0 -21847-1 0  9991","RCS_SIZE":"LARGE","DECAY_DATE":null,"BSTAR":"-0.02184700000000","SITE":"AFETR","PERIOD":"92.994","MEAN_MOTION":"15.48489274","ELEMENT_SET_NO":"999","OBJECT_NAME":"STARLINK-4509","MEAN_MOTION_DDOT":"0.0000000000000","OBJECT_ID":"2022-097S","MEAN_ELEMENT_THEORY":"SGP4","SEMIMAJOR_AXIS":"6799.282","INCLINATION":"53.2168","NORAD_CAT_ID":"53404","COUNTRY_CODE":"US","FILE":"3587117","ECCENTRICITY":"0.00016260","ARG_OF_PERICENTER":"25.3922","OBJECT_TYPE":"PAYLOAD","LAUNCH_DATE":"2022-08-10","CLASSIFICATION_TYPE":"U","RA_OF_ASC_NODE":"358.6166","EPOCH":"2022-09-29T22:00:00.999936","REF_FRAME":"TEME","PERIAPSIS":"420.041","APOAPSIS":"422.252","CENTER_NAME":"EARTH","REV_AT_EPOCH":"130","MEAN_MOTION_DOT":"-0.01070473","EPHEMERIS_TYPE":"0","TIME_SYSTEM":"UTC"},{"MEAN_ANOMALY":"99.2475","GP_ID":"213839418","TLE_LINE1":"1 53405U 22097T   22272.91667824 -.00020101  00000-0 -12479-2 0  9996","TLE_LINE2":"2 53405  53.2201   5.9794 0001375  56.7676  99.2475 15.08853831  1301","RCS_SIZE":"LARGE","DECAY_DATE":null,"BSTAR":"-0.00124790000000","MEAN_MOTION":"15.08853831","SITE":"AFETR","PERIOD":"95.437","MEAN_MOTION_DDOT":"0.0000000000000","OBJECT_NAME":"STARLINK-4510","ELEMENT_SET_NO":"999","OBJECT_ID":"2022-097T","MEAN_ELEMENT_THEORY":"SGP4","SEMIMAJOR_AXIS":"6917.838","INCLINATION":"53.2201","NORAD_CAT_ID":"53405","COUNTRY_CODE":"US","FILE":"3587117","ECCENTRICITY":"0.00013750","ARG_OF_PERICENTER":"56.7676","OBJECT_TYPE":"PAYLOAD","LAUNCH_DATE":"2022-08-10","CLASSIFICATION_TYPE":"U","EPOCH":"2022-09-29T22:00:00.999936","RA_OF_ASC_NODE":"5.9794","PERIAPSIS":"538.752","REF_FRAME":"TEME","CENTER_NAME":"EARTH","APOAPSIS":"540.654","EPHEMERIS_TYPE":"0","MEAN_MOTION_DOT":"-0.00020101","REV_AT_EPOCH":"130","TIME_SYSTEM":"UTC"},{"BSTAR":"-0.01398900000000","MEAN_MOTION":"15.49715039","PERIOD":"92.920","SITE":"AFETR","MEAN_MOTION_DDOT":"0.0000000000000","OBJECT_NAME":"STARLINK-4533","ELEMENT_SET_NO":"999","OBJECT_ID":"2022-097U","MEAN_ANOMALY":"6.1604","TLE_LINE1":"1 53406U 22097U   22272.91667824 -.00730212  00000-0 -13989-1 0  9994","GP_ID":"213838609","TLE_LINE2":"2 53406  53.2174 358.6827 0002029  28.4444   6.1604 15.49715039  1305","RCS_SIZE":"LARGE","DECAY_DATE":null,"OBJECT_TYPE":"PAYLOAD","LAUNCH_DATE":"2022-08-10","CLASSIFICATION_TYPE":"U","RA_OF_ASC_NODE":"358.6827","EPOCH":"2022-09-29T22:00:00.999936","PERIAPSIS":"416.182","REF_FRAME":"TEME","CENTER_NAME":"EARTH","APOAPSIS":"418.940","EPHEMERIS_TYPE":"0","MEAN_MOTION_DOT":"-0.00730212","REV_AT_EPOCH":"130","TIME_SYSTEM":"UTC","MEAN_ELEMENT_THEORY":"SGP4","INCLINATION":"53.2174","SEMIMAJOR_AXIS":"6795.696","NORAD_CAT_ID":"53406","COUNTRY_CODE":"US","FILE":"3587117","ECCENTRICITY":"0.00020290","ARG_OF_PERICENTER":"28.4444"},{"DECAY_DATE":null,"RCS_SIZE":"LARGE","TLE_LINE2":"2 53407  53.2171 357.0527 0003048  10.1482 147.6149 15.73167780  1301","GP_ID":"213839572","TLE_LINE1":"1 53407U 22097V   22272.91667824  .00020717  00000-0  15186-3 0  9998","MEAN_ANOMALY":"147.6149","OBJECT_ID":"2022-097V","ELEMENT_SET_NO":"999","MEAN_MOTION_DDOT":"0.0000000000000","OBJECT_NAME":"STARLINK-4537","PERIOD":"91.535","SITE":"AFETR","MEAN_MOTION":"15.73167780","BSTAR":"0.00015186000000","ARG_OF_PERICENTER":"10.1482","ECCENTRICITY":"0.00030480","FILE":"3587117","COUNTRY_CODE":"US","NORAD_CAT_ID":"53407","INCLINATION":"53.2171","SEMIMAJOR_AXIS":"6727.987","MEAN_ELEMENT_THEORY":"SGP4","TIME_SYSTEM":"UTC","MEAN_MOTION_DOT":"0.00020717","REV_AT_EPOCH":"130","EPHEMERIS_TYPE":"0","APOAPSIS":"351.903","CENTER_NAME":"EARTH","REF_FRAME":"TEME","PERIAPSIS":"347.801","CLASSIFICATION_TYPE":"U","RA_OF_ASC_NODE":"357.0527","EPOCH":"2022-09-29T22:00:00.999936","LAUNCH_DATE":"2022-08-10","OBJECT_TYPE":"PAYLOAD"},{"INCLINATION":"53.2174","SEMIMAJOR_AXIS":"6797.597","MEAN_ELEMENT_THEORY":"SGP4","COUNTRY_CODE":"US","NORAD_CAT_ID":"53408","FILE":"3587117","ARG_OF_PERICENTER":"35.0456","ECCENTRICITY":"0.00015730","LAUNCH_DATE":"2022-08-10","OBJECT_TYPE":"PAYLOAD","EPOCH":"2022-09-29T22:00:00.999936","CLASSIFICATION_TYPE":"U","RA_OF_ASC_NODE":"358.6396","CENTER_NAME":"EARTH","APOAPSIS":"420.531","PERIAPSIS":"418.392","REF_FRAME":"TEME","TIME_SYSTEM":"UTC","EPHEMERIS_TYPE":"0","MEAN_MOTION_DOT":"-0.01060147","REV_AT_EPOCH":"130","MEAN_ANOMALY":"356.3767","TLE_LINE1":"1 53408U 22097W   22272.91667824 -.01060147  00000-0 -21180-1 0  9992","GP_ID":"213838864","TLE_LINE2":"2 53408  53.2174 358.6396 0001573  35.0456 356.3767 15.49065108  1303","RCS_SIZE":"LARGE","DECAY_DATE":null,"BSTAR":"-0.02118000000000","OBJECT_NAME":"STARLINK-4491","MEAN_MOTION_DDOT":"0.0000000000000","ELEMENT_SET_NO":"999","MEAN_MOTION":"15.49065108","SITE":"AFETR","PERIOD":"92.959","OBJECT_ID":"2022-097W"},{"OBJECT_ID":"2022-097X","OBJECT_NAME":"STARLINK-4490","MEAN_MOTION_DDOT":"0.0000000000000","ELEMENT_SET_NO":"999","MEAN_MOTION":"15.73178295","PERIOD":"91.534","SITE":"AFETR","BSTAR":"0.00013275000000","DECAY_DATE":null,"RCS_SIZE":"LARGE","TLE_LINE1":"1 53409U 22097X   22272.91667824  .00018034  00000-0  13275-3 0  9996","GP_ID":"213839188","TLE_LINE2":"2 53409  53.2179 357.0489 0002638  20.4926 138.5864 15.73178295  1305","MEAN_ANOMALY":"138.5864","TIME_SYSTEM":"UTC","EPHEMERIS_TYPE":"0","REV_AT_EPOCH":"130","MEAN_MOTION_DOT":"0.00018034","CENTER_NAME":"EARTH","APOAPSIS":"351.597","PERIAPSIS":"348.047","REF_FRAME":"TEME","EPOCH":"2022-09-29T22:00:00.999936","CLASSIFICATION_TYPE":"U","RA_OF_ASC_NODE":"357.0489","LAUNCH_DATE":"2022-08-10","OBJECT_TYPE":"PAYLOAD","ARG_OF_PERICENTER":"20.4926","ECCENTRICITY":"0.00026380","FILE":"3587117","COUNTRY_CODE":"US","NORAD_CAT_ID":"53409","SEMIMAJOR_AXIS":"6727.957","INCLINATION":"53.2179","MEAN_ELEMENT_THEORY":"SGP4"}];
